[
    {
        "CCSDS_OMM_VERS": "3.0",
        "COMMENT": "GENERATED VIA SPACE-TRACK.ORG API",
        "CREATION_DATE": "2025-03-02T22:46:31",
        "ORIGINATOR": "18 SPCS",
        "OBJECT_NAME": "QZS-1 (MICHIBIKI)",
        "OBJECT_ID": "2010-045A",
        "CENTER_NAME": "EARTH",
        "REF_FRAME": "TEME",
        "TIME_SYSTEM": "UTC",
        "MEAN_ELEMENT_THEORY": "SGP4",
        "EPOCH": "2025-03-02T18:22:22.699200",
        "MEAN_MOTION": "0.87714906",
        "ECCENTRICITY": "0.00009030",
        "INCLINATION": "43.5896",
        "RA_OF_ASC_NODE": "121.5765",
        "ARG_OF_PERICENTER": "90.0511",
        "MEAN_ANOMALY": "268.4447",
        "EPHEMERIS_TYPE": "0",
        "CLASSIFICATION_TYPE": "U",
        "NORAD_CAT_ID": "37158",
        "ELEMENT_SET_NO": "999",
        "REV_AT_EPOCH": "5225",
        "BSTAR": "0.00000000000000",
        "MEAN_MOTION_DOT": "0.00000003",
        "MEAN_MOTION_DDOT": "0.0000000000000",
        "SEMIMAJOR_AXIS": "46098.441",
        "PERIOD": "1641.682",
        "APOAPSIS": "39724.469",
        "PERIAPSIS": "39716.143",
        "OBJECT_TYPE": "PAYLOAD",
        "RCS_SIZE": "LARGE",
        "COUNTRY_CODE": "JPN",
        "LAUNCH_DATE": "2010-09-11",
        "SITE": "TNSTA",
        "DECAY_DATE": null,
        "FILE": "4657310",
        "GP_ID": "282104465",
        "TLE_LINE0": "0 QZS-1 (MICHIBIKI)",
        "TLE_LINE1": "1 37158U 10045A   25061.76554050  .00000003  00000-0  00000+0 0  9992",
        "TLE_LINE2": "2 37158  43.5896 121.5765 0000903  90.0511 268.4447  0.87714906 52257"
    }
]